[{"OBJECT_NAME":"GNOMES-5","OBJECT_ID":"2024-149DL","EPOCH":"2026-03-09T22:53:01.372704","MEAN_MOTION":15.00280005,"ECCENTRICITY":0.00076217,"INCLINATION":97.6857,"RA_OF_ASC_NODE":148.0235,"ARG_OF_PERICENTER":89.6268,"MEAN_ANOMALY":270.5829,"EPHEMERIS_TYPE":0,"CLASSIFICATION_TYPE":"U","NORAD_CAT_ID":60574,"ELEMENT_SET_NO":999,"REV_AT_EPOCH":8527,"BSTAR":0.00047414566,"MEAN_MOTION_DOT":5.885e-5,"MEAN_MOTION_DDOT":0},{"OBJECT_NAME":"STARLINK-34632","OBJECT_ID":"2025-150C","EPOCH":"2026-03-09T14:41:27.561984","MEAN_MOTION":14.98333403,"ECCENTRICITY":0.0003624,"INCLINATION":70.0018,"RA_OF_ASC_NODE":134.5967,"ARG_OF_PERICENTER":272.7438,"MEAN_ANOMALY":87.3306,"EPHEMERIS_TYPE":0,"CLASSIFICATION_TYPE":"U","NORAD_CAT_ID":64792,"ELEMENT_SET_NO":999,"REV_AT_EPOCH":3650,"BSTAR":0.00028859,"MEAN_MOTION_DOT":3.352e-5,"MEAN_MOTION_DDOT":0}]
